{
  "type": "FeatureCollection",
  "features": [
    {
      "type": "Feature",
      "properties": {
        "name": "GRIET Campus"
      },
      "geometry": {
        "type": "Polygon",
        "coordinates": [
          [
            [78.3910, 17.4470],
            [78.3930, 17.4470],
            [78.3930, 17.4490],
            [78.3910, 17.4490],
            [78.3910, 17.4470]
          ]
        ]
      }
    },
    {
      "type": "Feature",
      "properties": {
        "name": "Building-A",
        "type": "building"
      },
      "geometry": {
        "type": "Polygon",
        "coordinates": [
          [
            [78.3913, 17.4473],
            [78.3918, 17.4473],
            [78.3918, 17.4478],
            [78.3913, 17.4478],
            [78.3913, 17.4473]
          ]
        ]
      }
    },
    {
      "type": "Feature",
      "properties": {
        "name": "Building-B",
        "type": "building"
      },
      "geometry": {
        "type": "Polygon",
        "coordinates": [
          [
            [78.3922, 17.4480],
            [78.3927, 17.4480],
            [78.3927, 17.4485],
            [78.3922, 17.4485],
            [78.3922, 17.4480]
          ]
        ]
      }
    }
  ]
}