{
"type": "FeatureCollection",
"name": "griet_campus",
"crs": { "type": "name", "properties": { "name": "urn:ogc:def:crs:OGC:1.3:CRS84" } },
"features": [
{"type":"Feature","properties":{"fid":3},"geometry":{"type":"Polygon","coordinates":[[[78.367900389139507,17.52290191779716],[78.368273927503807,17.522545712504169],[78.368317873193732,17.521812346464042],[78.368427737418529,17.521246604922446],[78.369021004232394,17.521026593846663],[78.36929566479435,17.520680861617265],[78.369328624061794,17.520439896340633],[78.36883423505023,17.519538892906493],[78.368636479445627,17.519214111502123],[78.368647465868094,17.518690269302731],[78.365538308306526,17.518973144278167],[78.364813204422902,17.519161727350216],[78.363780480709877,17.519507462473406],[78.363549765837817,17.519832243352855],[78.363033403981291,17.520052255876486],[78.36339595592311,17.520460849855645],[78.36348384730293,17.520932303303962],[78.364285856143923,17.520963733490305],[78.364593475973322,17.521843776497981],[78.366252425767655,17.521560905996626],[78.367669674267447,17.522943824256249],[78.367867429872092,17.522912394412842],[78.367900389139507,17.52290191779716]]]}}
]
}
